     2.100          NAVIGATION                              RINEX VERSION / TYPE
fic2rin                                 10/23/2009 01:08:28 PGM / RUN BY / DATE
                                                            END OF HEADER
28 09 10 22  7 59 44.0 -.258008949459D-04  .227373675443D-12  .000000000000D+00
     .120000000000D+02 -.242500000000D+02  .434839541384D-08 -.128290426581D+01
    -.120326876640D-05  .152095784433D-01  .889785587788D-05  .515365287399D+04
     .374384000000D+06  .249594449997D-06  .119115350515D+01  .368803739548D-06
     .967733531289D+00  .211375000000D+03 -.201430618728D+01 -.780211070351D-08
     .297155234851D-09  .100000000000D+01  .155400000000D+04  .000000000000D+00
     .240000000000D+01  .000000000000D+00 -.102445483208D-07  .120000000000D+02
     .367206000000D+06  .400000000000D+01
30 09 10 22  7 59 44.0  .186882913113D-03  .306954461848D-11  .000000000000D+00
     .900000000000D+01 -.191562500000D+02  .475198365348D-08 -.807493911294D+00
    -.977888703346D-06  .119262294611D-01  .878795981407D-05  .515366081047D+04
     .374384000000D+06 -.135973095894D-06  .111584343625D+01  .111758708954D-06
     .953360675687D+00  .207281250000D+03  .146443487955D+01 -.820927052050D-08
     .331799535068D-09  .100000000000D+01  .155400000000D+04  .000000000000D+00
     .240000000000D+01  .000000000000D+00 -.791624188423D-08  .900000000000D+01
     .367206000000D+06  .400000000000D+01
 1 09 10 22  8  0  0.0 -.608363188803D-04 -.159161572810D-11  .000000000000D+00
     .720000000000D+02 -.204062500000D+02  .578202655890D-08 -.419267676753D+00
    -.112503767014D-05  .379719655029D-02  .852718949318D-05  .515369519997D+04
     .374400000000D+06  .745058059692D-08  .115292737528D+01  .372529029846D-07
     .962082644478D+00  .213937500000D+03  .980160792157D+00 -.796247452617D-08
     .302869758598D-09  .100000000000D+01  .155400000000D+04  .000000000000D+00
     .240000000000D+01  .630000000000D+02 -.190921127796D-07  .720000000000D+02
     .367206000000D+06  .400000000000D+01
 2 09 10 22  8  0  0.0  .183440744877D-03  .386535248253D-11  .000000000000D+00
     .320000000000D+02  .201562500000D+02  .472019661514D-08 -.293138168160D+01
     .118836760521D-05  .912344804965D-02  .968948006630D-05  .515372435951D+04
     .374400000000D+06 -.122934579849D-06 -.304378370924D+01  .186264514923D-08
     .941124404626D+00  .179093750000D+03  .290676869349D+01 -.787389940809D-08
    -.372158359032D-09  .100000000000D+01  .155400000000D+04  .000000000000D+00
     .240000000000D+01  .000000000000D+00 -.172294676304D-07  .320000000000D+02
     .367206000000D+06  .400000000000D+01
 3 09 10 22  8  0  0.0  .463999807835D-03  .522959453519D-11  .000000000000D+00
     .520000000000D+02 -.953125000000D+01  .549844331795D-08  .309318290227D+01
    -.519677996635D-06  .126034796704D-01  .541843473911D-05  .515365612793D+04
     .374400000000D+06  .502914190292D-07  .209007075995D+01 -.145286321640D-06
     .926342689754D+00  .254875000000D+03  .957357230366D+00 -.827605901679D-08
     .242867259253D-10  .100000000000D+01  .155400000000D+04  .000000000000D+00
     .240000000000D+01  .000000000000D+00 -.465661287308D-08  .520000000000D+02
     .367206000000D+06  .400000000000D+01
 4 09 10 22  8  0  0.0 -.322540290654D-03 -.178488335223D-10  .000000000000D+00
     .960000000000D+02  .213750000000D+02  .483055835500D-08 -.860727279489D-01
     .124238431454D-05  .895916216541D-02  .922940671444D-05  .515355817032D+04
     .374400000000D+06  .109896063805D-06 -.302561214546D+01  .651925802231D-07
     .940310148812D+00  .189250000000D+03  .541524997284D+00 -.817891211309D-08
    -.353943314588D-09  .100000000000D+01  .155400000000D+04  .000000000000D+00
     .240000000000D+01  .000000000000D+00 -.605359673500D-08  .960000000000D+02
     .367206000000D+06  .400000000000D+01
 5 09 10 22  8  0  0.0 -.599739141762D-04  .829913915368D-11  .000000000000D+00
     .600000000000D+02  .112750000000D+03  .433553773541D-08 -.153663000233D+01
     .559724867344D-05  .156494311523D-02  .750645995140D-05  .515358560753D+04
     .374400000000D+06 -.316649675369D-07 -.198587007343D+01 -.484287738800D-07
     .961100232082D+00  .231812500000D+03  .216900175151D+00 -.797711799327D-08
     .146791828755D-09  .100000000000D+01  .155400000000D+04  .000000000000D+00
     .240000000000D+01  .000000000000D+00 -.931322574615D-08  .600000000000D+02
     .367206000000D+06  .400000000000D+01
 6 09 10 22  8  0  0.0  .255377031863D-03  .363797880709D-11  .000000000000D+00
     .780000000000D+02 -.934375000000D+01  .541629703908D-08 -.873001814635D+00
    -.407919287682D-06  .577098492067D-02  .582076609135D-05  .515368977737D+04
     .374400000000D+06 -.819563865662D-07  .215890333334D+01  .521540641785D-07
     .933812406521D+00  .255093750000D+03 -.122646630242D+01 -.849642533879D-08
     .242867259253D-10  .100000000000D+01  .155400000000D+04  .000000000000D+00
     .240000000000D+01  .000000000000D+00 -.512227416039D-08  .780000000000D+02
     .367206000000D+06  .400000000000D+01
 7 09 10 22  8  0  0.0  .915024429560D-05 -.682121026330D-12  .000000000000D+00
     .420000000000D+02 -.103906250000D+03  .430946522081D-08  .163794969991D+01
    -.523217022419D-05  .323259120341D-02  .736489892006D-05  .515365314674D+04
     .374400000000D+06  .106170773506D-06  .113457294820D+00  .316649675369D-07
     .969543456462D+00  .240843750000D+03  .299691318473D+01 -.802640576059D-08
    -.159292349451D-09  .100000000000D+01  .155400000000D+04  .000000000000D+00
     .240000000000D+01  .000000000000D+00 -.107102096081D-07  .420000000000D+02
     .367206000000D+06  .400000000000D+01
 8 09 10 22  8  0  0.0 -.107395462692D-04 -.339923644788D-10 -.277555756156D-16
     .600000000000D+01 -.105468750000D+03  .379515808357D-08  .100017721998D+01
    -.541470944881D-05  .110208784463D-01  .730901956558D-05  .515361930084D+04
     .374400000000D+06  .968575477600D-07  .176831387314D+00  .117346644402D-06
     .990800602662D+00  .250062500000D+03  .304440022973D+01 -.773996525776D-08
    -.225009372544D-09  .100000000000D+01  .155400000000D+04  .000000000000D+00
     .240000000000D+01  .630000000000D+02 -.372529029846D-08  .600000000000D+01
     .367206000000D+06  .400000000000D+01
 9 09 10 22  8  0  0.0  .843503512442D-04  .204636307899D-11  .000000000000D+00
     .860000000000D+02 -.921250000000D+02  .425517724521D-08  .777471343248D+00
    -.494532287121D-05  .206244692672D-01  .714696943760D-05  .515362760925D+04
     .374400000000D+06 -.273808836937D-06  .805256863781D-01 -.838190317154D-07
     .978405720560D+00  .257218750000D+03  .151771790796D+01 -.824570060939D-08
    -.158220876249D-09  .100000000000D+01  .155400000000D+04  .000000000000D+00
     .240000000000D+01  .000000000000D+00 -.558793544769D-08  .860000000000D+02
     .367206000000D+06  .400000000000D+01
10 09 10 22  8  0  0.0 -.264644622803D-04 -.909494701773D-12  .000000000000D+00
     .370000000000D+02  .115250000000D+03  .444411368660D-08 -.180719843611D+01
     .568106770515D-05  .864531821571D-02  .694021582603D-05  .515339307976D+04
     .374400000000D+06  .502914190292D-07 -.195888505581D+01 -.121071934700D-06
     .956157687280D+00  .239000000000D+03  .616036691807D+00 -.797176062726D-08
     .233938315898D-09  .100000000000D+01  .155400000000D+04  .000000000000D+00
     .340000000000D+01  .000000000000D+00 -.279396772385D-08  .370000000000D+02
     .367206000000D+06  .400000000000D+01
11 09 10 22  8  0  0.0 -.254414044321D-04 -.181898940355D-11  .000000000000D+00
     .490000000000D+02 -.625000000000D+00  .613096966521D-08  .151772263026D+01
    -.391155481339D-07  .100822994718D-01  .876188278198D-05  .515370451736D+04
     .374400000000D+06 -.165775418282D-06  .303195353838D+01  .726431608200D-07
     .889366370296D+00  .174281250000D+03  .744136207871D+00 -.876215069303D-08
    -.490377569051D-09  .100000000000D+01  .155400000000D+04  .000000000000D+00
     .240000000000D+01  .000000000000D+00 -.116415321827D-07  .490000000000D+02
     .367206000000D+06  .400000000000D+01
13 09 10 22  8  0  0.0  .305792782456D-03  .227373675443D-12  .000000000000D+00
     .450000000000D+02 -.125625000000D+02  .406016912234D-08 -.230296389276D+01
    -.517815351486D-06  .395424116869D-02  .182352960110D-05  .515363746071D+04
     .374400000000D+06  .130385160446D-07 -.872425591685D+00  .279396772385D-07
     .994119290842D+00  .362437500000D+03  .166047823164D+01 -.802640576059D-08
     .360729311538D-10  .100000000000D+01  .155400000000D+04  .000000000000D+00
     .240000000000D+01  .000000000000D+00 -.111758708954D-07  .450000000000D+02
     .367206000000D+06  .400000000000D+01
15 09 10 22  8  0  0.0 -.320335384458D-03 -.227373675443D-12  .000000000000D+00
     .110000000000D+03  .125625000000D+02  .491699052668D-08 -.213167961870D+01
     .707805156708D-06  .186851364560D-02  .189058482647D-05  .515367458725D+04
     .374400000000D+06 -.949949026108D-07 -.950012299048D+00  .372529029846D-08
     .955332907233D+00  .343343750000D+03 -.500875883011D+00 -.844606609827D-08
     .542879755978D-10  .100000000000D+01  .155400000000D+04  .000000000000D+00
     .340000000000D+01  .000000000000D+00 -.977888703346D-08  .110000000000D+03
     .367206000000D+06  .400000000000D+01
16 09 10 22  8  0  0.0 -.135507434607D-06 -.409272615798D-11  .000000000000D+00
     .790000000000D+02 -.142187500000D+02  .429267880730D-08 -.699822113691D+00
    -.761821866035D-06  .529970682692D-02  .893324613571D-05  .515364048004D+04
     .374400000000D+06  .931322574615D-08  .118314454215D+01 -.147148966789D-06
     .969522662545D+00  .214187500000D+03 -.270663614157D+00 -.782318300983D-08
     .359657838335D-09  .100000000000D+01  .155400000000D+04  .000000000000D+00
     .240000000000D+01  .000000000000D+00 -.977888703346D-08  .790000000000D+02
     .367206000000D+06  .400000000000D+01
